[{"OBJECT_NAME":"SL-8 R/B","OBJECT_ID":"1979-089B","EPOCH":"2026-04-23T03:14:33.464256","MEAN_MOTION":14.4237769,"ECCENTRICITY":0.0015752,"INCLINATION":74.0712,"RA_OF_ASC_NODE":8.7702,"ARG_OF_PERICENTER":173.3282,"MEAN_ANOMALY":186.8088,"EPHEMERIS_TYPE":0,"CLASSIFICATION_TYPE":"U","NORAD_CAT_ID":11574,"ELEMENT_SET_NO":999,"REV_AT_EPOCH":44251,"BSTAR":5.8052556e-5,"MEAN_MOTION_DOT":1.66e-6,"MEAN_MOTION_DDOT":0},{"OBJECT_NAME":"SL-14 R/B","OBJECT_ID":"1980-005B","EPOCH":"2026-04-23T11:48:17.237952","MEAN_MOTION":14.90978869,"ECCENTRICITY":0.00161205,"INCLINATION":82.5123,"RA_OF_ASC_NODE":264.7221,"ARG_OF_PERICENTER":19.5143,"MEAN_ANOMALY":340.6689,"EPHEMERIS_TYPE":0,"CLASSIFICATION_TYPE":"U","NORAD_CAT_ID":11672,"ELEMENT_SET_NO":999,"REV_AT_EPOCH":48316,"BSTAR":3.7626869e-5,"MEAN_MOTION_DOT":3.98e-6,"MEAN_MOTION_DDOT":0},{"OBJECT_NAME":"SL-8 R/B","OBJECT_ID":"1981-003B","EPOCH":"2026-04-23T08:13:23.930976","MEAN_MOTION":15.12759593,"ECCENTRICITY":0.0256577,"INCLINATION":82.9363,"RA_OF_ASC_NODE":248.6693,"ARG_OF_PERICENTER":23.5105,"MEAN_ANOMALY":337.7608,"EPHEMERIS_TYPE":0,"CLASSIFICATION_TYPE":"U","NORAD_CAT_ID":12139,"ELEMENT_SET_NO":999,"REV_AT_EPOCH":32142,"BSTAR":0.00027545575,"MEAN_MOTION_DOT":0.00011103,"MEAN_MOTION_DDOT":0},{"OBJECT_NAME":"SL-3 R/B","OBJECT_ID":"1981-046B","EPOCH":"2026-04-23T13:02:37.794336","MEAN_MOTION":15.43054273,"ECCENTRICITY":0.00183834,"INCLINATION":81.2308,"RA_OF_ASC_NODE":235.8315,"ARG_OF_PERICENTER":220.9959,"MEAN_ANOMALY":138.9904,"EPHEMERIS_TYPE":0,"CLASSIFICATION_TYPE":"U","NORAD_CAT_ID":12465,"ELEMENT_SET_NO":999,"REV_AT_EPOCH":44534,"BSTAR":0.00021615076,"MEAN_MOTION_DOT":9.632e-5,"MEAN_MOTION_DDOT":0},{"OBJECT_NAME":"SL-3 R/B","OBJECT_ID":"1981-103B","EPOCH":"2026-04-23T11:43:35.201568","MEAN_MOTION":15.21833573,"ECCENTRICITY":0.00142069,"INCLINATION":81.1584,"RA_OF_ASC_NODE":160.8704,"ARG_OF_PERICENTER":132.8599,"MEAN_ANOMALY":227.3829,"EPHEMERIS_TYPE":0,"CLASSIFICATION_TYPE":"U","NORAD_CAT_ID":12904,"ELEMENT_SET_NO":999,"REV_AT_EPOCH":98004,"BSTAR":0.00012957396,"MEAN_MOTION_DOT":2.976e-5,"MEAN_MOTION_DDOT":0},{"OBJECT_NAME":"SL-3 R/B","OBJECT_ID":"1982-013B","EPOCH":"2026-04-23T13:05:21.052320","MEAN_MOTION":15.22375914,"ECCENTRICITY":0.0022805,"INCLINATION":81.1714,"RA_OF_ASC_NODE":108.1728,"ARG_OF_PERICENTER":31.9932,"MEAN_ANOMALY":328.2679,"EPHEMERIS_TYPE":0,"CLASSIFICATION_TYPE":"U","NORAD_CAT_ID":13068,"ELEMENT_SET_NO":999,"REV_AT_EPOCH":41117,"BSTAR":0.00013599258,"MEAN_MOTION_DOT":3.187e-5,"MEAN_MOTION_DDOT":0},{"OBJECT_NAME":"SL-3 R/B","OBJECT_ID":"1982-039B","EPOCH":"2026-04-23T12:18:05.238432","MEAN_MOTION":15.10293124,"ECCENTRICITY":0.00282621,"INCLINATION":81.1491,"RA_OF_ASC_NODE":164.259,"ARG_OF_PERICENTER":171.9441,"MEAN_ANOMALY":188.2245,"EPHEMERIS_TYPE":0,"CLASSIFICATION_TYPE":"U","NORAD_CAT_ID":13154,"ELEMENT_SET_NO":999,"REV_AT_EPOCH":38840,"BSTAR":6.308035e-5,"MEAN_MOTION_DOT":1.066e-5,"MEAN_MOTION_DDOT":0},{"OBJECT_NAME":"SL-3 R/B","OBJECT_ID":"1982-079B","EPOCH":"2026-04-23T13:04:07.711680","MEAN_MOTION":15.2529531,"ECCENTRICITY":0.00243789,"INCLINATION":81.1447,"RA_OF_ASC_NODE":140.0964,"ARG_OF_PERICENTER":17.6919,"MEAN_ANOMALY":342.5158,"EPHEMERIS_TYPE":0,"CLASSIFICATION_TYPE":"U","NORAD_CAT_ID":13403,"ELEMENT_SET_NO":999,"REV_AT_EPOCH":38453,"BSTAR":0.00014560348,"MEAN_MOTION_DOT":3.722e-5,"MEAN_MOTION_DDOT":0},{"OBJECT_NAME":"SL-14 R/B","OBJECT_ID":"1982-092B","EPOCH":"2026-04-23T09:52:29.100288","MEAN_MOTION":14.867031,"ECCENTRICITY":0.00211395,"INCLINATION":82.5649,"RA_OF_ASC_NODE":99.553,"ARG_OF_PERICENTER":148.9296,"MEAN_ANOMALY":324.747,"EPHEMERIS_TYPE":0,"CLASSIFICATION_TYPE":"U","NORAD_CAT_ID":13553,"ELEMENT_SET_NO":999,"REV_AT_EPOCH":33557,"BSTAR":3.3495494e-5,"MEAN_MOTION_DOT":3.24e-6,"MEAN_MOTION_DDOT":0},{"OBJECT_NAME":"SL-3 R/B","OBJECT_ID":"1983-010B","EPOCH":"2026-04-23T00:01:16.697280","MEAN_MOTION":15.47667115,"ECCENTRICITY":0.00150873,"INCLINATION":81.1015,"RA_OF_ASC_NODE":307.8562,"ARG_OF_PERICENTER":251.4603,"MEAN_ANOMALY":108.5004,"EPHEMERIS_TYPE":0,"CLASSIFICATION_TYPE":"U","NORAD_CAT_ID":13819,"ELEMENT_SET_NO":999,"REV_AT_EPOCH":36479,"BSTAR":0.00019412849,"MEAN_MOTION_DOT":0.00010103,"MEAN_MOTION_DDOT":0},{"OBJECT_NAME":"SL-3 R/B","OBJECT_ID":"1983-075B","EPOCH":"2026-04-23T11:41:09.513024","MEAN_MOTION":15.3941408,"ECCENTRICITY":0.00230253,"INCLINATION":97.6135,"RA_OF_ASC_NODE":119.7981,"ARG_OF_PERICENTER":71.751,"MEAN_ANOMALY":288.6238,"EPHEMERIS_TYPE":0,"CLASSIFICATION_TYPE":"U","NORAD_CAT_ID":14208,"ELEMENT_SET_NO":999,"REV_AT_EPOCH":33704,"BSTAR":0.00021635476,"MEAN_MOTION_DOT":8.455e-5,"MEAN_MOTION_DDOT":0},{"OBJECT_NAME":"COSMOS 1536","OBJECT_ID":"1984-013A","EPOCH":"2026-04-23T07:09:38.664288","MEAN_MOTION":15.24413887,"ECCENTRICITY":0.00160035,"INCLINATION":82.5445,"RA_OF_ASC_NODE":63.4771,"ARG_OF_PERICENTER":121.1129,"MEAN_ANOMALY":239.1681,"EPHEMERIS_TYPE":0,"CLASSIFICATION_TYPE":"U","NORAD_CAT_ID":14699,"ELEMENT_SET_NO":999,"REV_AT_EPOCH":27941,"BSTAR":0.00018933056,"MEAN_MOTION_DOT":4.69e-5,"MEAN_MOTION_DDOT":0},{"OBJECT_NAME":"SL-14 R/B","OBJECT_ID":"1984-027B","EPOCH":"2026-04-23T12:56:27.785472","MEAN_MOTION":14.86020403,"ECCENTRICITY":0.00179851,"INCLINATION":82.5444,"RA_OF_ASC_NODE":202.9567,"ARG_OF_PERICENTER":180.0711,"MEAN_ANOMALY":180.0507,"EPHEMERIS_TYPE":0,"CLASSIFICATION_TYPE":"U","NORAD_CAT_ID":14820,"ELEMENT_SET_NO":999,"REV_AT_EPOCH":25429,"BSTAR":3.2337986e-5,"MEAN_MOTION_DOT":3.08e-6,"MEAN_MOTION_DDOT":0},{"OBJECT_NAME":"SL-8 R/B","OBJECT_ID":"1985-006B","EPOCH":"2026-04-23T07:54:28.723968","MEAN_MOTION":14.37810526,"ECCENTRICITY":0.00171938,"INCLINATION":74.0458,"RA_OF_ASC_NODE":179.0096,"ARG_OF_PERICENTER":81.8607,"MEAN_ANOMALY":349.2824,"EPHEMERIS_TYPE":0,"CLASSIFICATION_TYPE":"U","NORAD_CAT_ID":15483,"ELEMENT_SET_NO":999,"REV_AT_EPOCH":16044,"BSTAR":5.5502647e-5,"MEAN_MOTION_DOT":1.41e-6,"MEAN_MOTION_DDOT":0},{"OBJECT_NAME":"SL-12 R/B(2)","OBJECT_ID":"1985-042D","EPOCH":"2026-04-23T04:04:22.491264","MEAN_MOTION":14.21994317,"ECCENTRICITY":0.0033344,"INCLINATION":71.1099,"RA_OF_ASC_NODE":353.7566,"ARG_OF_PERICENTER":54.424,"MEAN_ANOMALY":94.8089,"EPHEMERIS_TYPE":0,"CLASSIFICATION_TYPE":"U","NORAD_CAT_ID":15772,"ELEMENT_SET_NO":999,"REV_AT_EPOCH":12071,"BSTAR":6.0517905e-5,"MEAN_MOTION_DOT":8.7e-7,"MEAN_MOTION_DDOT":0},{"OBJECT_NAME":"SL-14 R/B","OBJECT_ID":"1985-069B","EPOCH":"2026-04-23T02:33:09.453024","MEAN_MOTION":14.86475023,"ECCENTRICITY":0.0019963,"INCLINATION":82.5278,"RA_OF_ASC_NODE":343.1773,"ARG_OF_PERICENTER":48.5193,"MEAN_ANOMALY":311.7733,"EPHEMERIS_TYPE":0,"CLASSIFICATION_TYPE":"U","NORAD_CAT_ID":15945,"ELEMENT_SET_NO":999,"REV_AT_EPOCH":17943,"BSTAR":3.0706901e-5,"MEAN_MOTION_DOT":2.97e-6,"MEAN_MOTION_DDOT":0},{"OBJECT_NAME":"SL-16 R/B","OBJECT_ID":"1985-097B","EPOCH":"2026-04-23T13:33:46.030176","MEAN_MOTION":14.16606796,"ECCENTRICITY":0.00082052,"INCLINATION":71.0043,"RA_OF_ASC_NODE":46.0737,"ARG_OF_PERICENTER":204.7874,"MEAN_ANOMALY":328.5231,"EPHEMERIS_TYPE":0,"CLASSIFICATION_TYPE":"U","NORAD_CAT_ID":16182,"ELEMENT_SET_NO":999,"REV_AT_EPOCH":9358,"BSTAR":-6.3994509e-5,"MEAN_MOTION_DOT":-1.76e-6,"MEAN_MOTION_DDOT":0}]
