SL-8 R/B                
1 11574U 79089B   26113.13510954  .00000166  00000+0  58053-4 0  9999
2 11574  74.0712   8.7702 0015752 173.3282 186.8088 14.42377690442519
SL-14 R/B               
1 11672U 80005B   26113.49186618  .00000398  00000+0  37627-4 0  9994
2 11672  82.5123 264.7221 0016120  19.5143 340.6689 14.90978869483166
SL-8 R/B                
1 12139U 81003B   26113.34263809  .00011103  00000+0  27546-3 0  9998
2 12139  82.9363 248.6693 0256577  23.5105 337.7608 15.12759593321428
SL-3 R/B                
1 12465U 81046B   26113.54349299  .00009632  00000+0  21615-3 0  9992
2 12465  81.2308 235.8315 0018383 220.9959 138.9904 15.43054273445346
SL-3 R/B                
1 12904U 81103B   26113.48860187  .00002976  00000+0  12957-3 0  9994
2 12904  81.1584 160.8704 0014206 132.8599 227.3829 15.21833573980043
SL-3 R/B                
1 13068U 82013B   26113.54538255  .00003187  00000+0  13599-3 0  9990
2 13068  81.1714 108.1728 0022805  31.9932 328.2679 15.22375914411173
SL-3 R/B                
1 13154U 82039B   26113.51256063  .00001066  00000+0  63080-4 0  9990
2 13154  81.1491 164.2590 0028262 171.9441 188.2245 15.10293124388405
SL-3 R/B                
1 13403U 82079B   26113.54453370  .00003722  00000+0  14560-3 0  9993
2 13403  81.1447 140.0964 0024378  17.6919 342.5158 15.25295310384533
SL-14 R/B               
1 13553U 82092B   26113.41144792  .00000324  00000+0  33495-4 0  9999
2 13553  82.5649  99.5530 0021139 148.9296 324.7470 14.86703100335579
SL-3 R/B                
1 13819U 83010B   26113.00088770  .00010103  00000+0  19413-3 0  9992
2 13819  81.1015 307.8562 0015087 251.4603 108.5004 15.47667115364793
SL-3 R/B                
1 14208U 83075B   26113.48691566  .00008455  00000+0  21635-3 0  9997
2 14208  97.6135 119.7981 0023025  71.7510 288.6238 15.39414080337046
COSMOS 1536             
1 14699U 84013A   26113.29836417  .00004690  00000+0  18933-3 0  9993
2 14699  82.5445  63.4771 0016003 121.1129 239.1681 15.24413887279410
SL-14 R/B               
1 14820U 84027B   26113.53921048  .00000308  00000+0  32338-4 0  9994
2 14820  82.5444 202.9567 0017985 180.0711 180.0507 14.86020403254294
SL-8 R/B                
1 15483U 85006B   26113.32949912  .00000141  00000+0  55503-4 0  9999
2 15483  74.0458 179.0096 0017193  81.8607 349.2824 14.37810526160448
SL-12 R/B(2)            
1 15772U 85042D   26113.16970476  .00000087  00000+0  60518-4 0  9992
2 15772  71.1099 353.7566 0033344  54.4240  94.8089 14.21994317120712
SL-14 R/B               
1 15945U 85069B   26113.10635941  .00000297  00000+0  30707-4 0  9992
2 15945  82.5278 343.1773 0019963  48.5193 311.7733 14.86475023179433
SL-16 R/B               
1 16182U 85097B   26113.56511609 -.00000176  00000+0 -63995-4 0  9994
2 16182  71.0043  46.0737 0008205 204.7874 328.5231 14.16606796 93584
